STARLINK-11091 [DTC]    
1 61207U 24171H   25087.16070678 -.00001292  00000+0 -58172-5 0  9991
2 61207  53.1585  84.4343 0000829  75.9231 284.1879 15.69702267 30824
STARLINK-11291 [DTC]    
1 61208U 24171J   25087.14599287 -.00001239  00000+0 -53663-5 0  9993
2 61208  53.1586  84.3349 0001165  85.6915 274.4236 15.69704735 30878
STARLINK-11304 [DTC]    
1 61209U 24171K   25086.69540838 -.00000973  00000+0 -31717-5 0  9991
2 61209  53.1592  86.4992 0001604  89.4634 270.6567 15.69694120 30816
STARLINK-11307 [DTC]    
1 61210U 24171L   25087.13628167 -.00000540  00000+0  40269-6 0  9997
2 61210  53.1589  85.0061 0001131  77.6146 282.4999 15.69701281 30860
STARLINK-11298 [DTC]    
1 61211U 24171M   25086.30367980 -.00001427  00000+0 -69245-5 0  9999
2 61211  53.1581  89.0548 0001047  80.4300 279.6837 15.69695096 29837
STARLINK-11310 [DTC]    
1 61212U 24171N   25086.42610342 -.00000287  00000+0  24883-5 0  9997
2 61212  53.1583  88.3954 0001169 100.0405 260.0745 15.69705385 29850
STARLINK-32386          
1 61213U 24171P   25086.54341278  .00001689  00000+0  69166-4 0  9998
2 61213  53.1591 134.5619 0001241  81.7185 278.3956 15.30188204 30135
STARLINK-32392          
1 61214U 24171Q   25086.43072198  .00001767  00000+0  71810-4 0  9995
2 61214  53.1592 135.2796 0001488  98.9642 261.1527 15.30184636 29207
STARLINK-32436          
1 61215U 24171R   25086.41383700  .00003335  00000+0  12468-3 0  9994
2 61215  53.1587 135.1718 0001285  84.7760 275.3388 15.30194892 30102
STARLINK-32425          
1 61216U 24171S   25086.51926142 -.00001641  00000+0 -43321-4 0  9992
2 61216  53.1589 135.1240 0000976 116.3761 243.7340 15.30174007 30118
STARLINK-32342          
1 61217U 24171T   25086.50869934  .00001344  00000+0  57485-4 0  9991
2 61217  53.1589 135.0536 0001106  97.6387 262.4739 15.30194421 30120
STARLINK-32423          
1 61218U 24171U   25086.51081028  .00002145  00000+0  84569-4 0  9996
2 61218  53.1593 135.0689 0001420 105.1179 254.9979 15.30186548 30121
STARLINK-32248          
1 61219U 24171V   25086.52875148  .00003806  00000+0  14058-3 0  9992
2 61219  53.1600 135.1742 0001657 102.2630 257.8556 15.30194482 30112
STARLINK-11300 [DTC]    
1 61243U 24175A   25085.97549271  .00000894  00000+0  12238-4 0  9999
2 61243  53.1578 330.4016 0001082  86.9123 273.2019 15.69704289 28751
STARLINK-11276 [DTC]    
1 61244U 24175B   25086.67093937 -.00007718  00000+0 -58846-4 0  9990
2 61244  53.1535 326.9143 0001567  86.2230 273.8967 15.69730924 28861
STARLINK-11280 [DTC]    
1 61245U 24175C   25087.04315976 -.00000838  00000+0 -20639-5 0  9999
2 61245  53.1587 324.9734 0001105  65.0983 295.0150 15.69702331 30078
STARLINK-11308 [DTC]    
1 61246U 24175D   25085.96567182  .00003249  00000+0  31668-4 0  9997
2 61246  53.1599 330.3336 0002027  85.3703 274.7546 15.69716616 29645
STARLINK-11305 [DTC]    
1 61247U 24175E   25086.40155513  .00000011  00000+0  49518-5 0  9997
2 61247  53.1582 328.0704 0001112  72.2104 287.9035 15.69707325 28820
STARLINK-11317 [DTC]    
1 61248U 24175F   25087.03334611  .00000261  00000+0  70152-5 0  9991
2 61248  53.1583 324.9021 0001026  50.8664 309.2445 15.69705890 29926
STARLINK-11293 [DTC]    
1 61249U 24175G   25086.64643457 -.00002441  00000+0 -15314-4 0  9991
2 61249  53.1600 326.7504 0000445  67.0206 293.0858 15.69691544 28869
STARLINK-11334 [DTC]    
1 61250U 24175H   25086.38683963 -.00000990  00000+0 -33147-5 0  9992
2 61250  53.1586 327.9974 0001143  87.3189 272.7960 15.69707483 29712
STARLINK-11319 [DTC]    
1 61251U 24175J   25087.08240392 -.00000538  00000+0  41941-6 0  9995
2 61251  53.1580 325.2250 0001465  86.3654 273.7531 15.69698283 30127
STARLINK-11318 [DTC]    
1 61252U 24175K   25087.07749727 -.00000418  00000+0  14086-5 0  9997
2 61252  53.1587 325.1886 0000985  70.9578 289.1547 15.69701497 29802
STARLINK-11311 [DTC]    
1 61253U 24175L   25086.37222469  .00000464  00000+0  86865-5 0  9993
2 61253  53.1572 328.6064 0000832  96.6924 263.4189 15.69702337 30021
STARLINK-11306 [DTC]    
1 61254U 24175M   25086.36732165  .00001438  00000+0  16736-4 0  9993
2 61254  53.1596 328.5759 0001277  81.6412 278.4750 15.69702158 30018
STARLINK-11313 [DTC]    
1 61255U 24175N   25086.68076020  .00000682  00000+0  10485-4 0  9995
2 61255  53.1582 326.9711 0000944  88.6322 271.4803 15.69704086 28865
STARLINK-32431          
1 61256U 24175P   25087.06460063 -.00001511  00000+0 -38928-4 0  9999
2 61256  53.1630   4.0837 0001148  66.4827 293.6294 15.30172268 29583
STARLINK-32432          
1 61257U 24175Q   25086.47991661 -.00001267  00000+0 -30654-4 0  9993
2 61257  53.1605   6.8437 0001556  80.9002 279.2175 15.30189909 28296
STARLINK-32382          
1 61258U 24175R   25087.07083557  .00007092  00000+0  25088-3 0  9991
2 61258  53.1607   4.1252 0001384  69.1110 291.0038 15.30260124 29338
STARLINK-32435          
1 61259U 24175S   25087.14363362 -.00001359  00000+0 -33788-4 0  9994
2 61259  53.1607   3.8733 0001526 112.3418 247.7744 15.30166518 29557
STARLINK-32474          
1 61260U 24175T   25087.18888747  .00001413  00000+0  59876-4 0  9994
2 61260  53.1622   3.4379 0001358  41.6290 318.4814 15.30179330 29564
STARLINK-32447          
1 61261U 24175U   25087.06142746 -.00002147  00000+0 -60408-4 0  9994
2 61261  53.1616   4.0642 0000990  84.0001 276.1113 15.30182866 29582
STARLINK-32446          
1 61262U 24175V   25086.48730718 -.00001345  00000+0 -33312-4 0  9995
2 61262  53.1617   6.8879 0000943  65.6375 294.4724 15.30187064 29499
STARLINK-32174          
1 61509U 24183A   25086.34765777  .00001426  00000+0  45632-4 0  9992
2 61509  53.1610 317.1796 0001379  92.5971 267.5192 15.39620813 26453
STARLINK-32139          
1 61510U 24183B   25087.00154450 -.00000565  00000+0 -41317-5 0  9990
2 61510  53.1596 314.8671 0001607  76.4076 283.7107 15.39623025 26550
STARLINK-32140          
1 61511U 24183C   25086.33846484  .00002194  00000+0  64803-4 0  9993
2 61511  53.1601 317.8373 0001336  85.3014 274.8143 15.39621746 26447
STARLINK-32201          
1 61512U 24183D   25087.01504302  .00000380  00000+0  19463-4 0  9997
2 61512  53.1585 314.2336 0000188  78.5506 281.5520 15.39603136 26462
STARLINK-32030          
1 61513U 24183E   25087.00587589 -.00001284  00000+0 -22127-4 0  9992
2 61513  53.1627 314.8975 0001427  82.2743 277.8424 15.39607227 26553
STARLINK-31837          
1 61514U 24183F   25086.02695645  .00003380  00000+0  94383-4 0  9997
2 61514  53.1619 318.0160 0001129 106.4182 253.6947 15.39639037 26413
STARLINK-32136          
1 61515U 24183G   25087.01084602  .00000017  00000+0  10426-4 0  9993
2 61515  53.1555 314.9247 0002416  88.2488 271.8794 15.39599321 26569
STARLINK-32047          
1 61516U 24183H   25087.06096321  .00000135  00000+0  13366-4 0  9997
2 61516  53.1611 313.0959 0001827  79.7053 280.4157 15.39608579 26498
STARLINK-31756          
1 61517U 24183J   25086.65333449 -.00003643  00000+0 -10789-3 0  9991
2 61517  53.1533 314.7638 0001344 347.9892  12.1077 15.31063129 26511
STARLINK-32172          
1 61518U 24183K   25086.60189949  .00000058  00000+0  11446-4 0  9998
2 61518  53.1598 315.2041 0002167  99.2697 260.8553 15.39615216 26408
STARLINK-32338          
1 61519U 24183L   25086.59727654 -.00000729  00000+0 -82589-5 0  9992
2 61519  53.1624 315.1745 0000495  89.9057 270.2004 15.39600324 26339
STARLINK-32306          
1 61520U 24183M   25086.33295918 -.00001804  00000+0 -35138-4 0  9991
2 61520  53.1610 316.3734 0000729  84.1113 275.9975 15.39628622 26461
STARLINK-32297          
1 61521U 24183N   25086.65288743  .00000405  00000+0  20120-4 0  9994
2 61521  53.1584 314.8132 0001735 108.0093 252.1101 15.39627247 26514
STARLINK-32260          
1 61522U 24183P   25086.64825433  .00000536  00000+0  23376-4 0  9998
2 61522  53.1603 314.7823 0001054  63.7973 296.3140 15.39608936 26518
STARLINK-32305          
1 61523U 24183Q   25086.61584827 -.00001763  00000+0 -34108-4 0  9995
2 61523  53.1604 315.2932 0001147  86.4230 273.6906 15.39609615 26410
STARLINK-32296          
1 61524U 24183R   25087.03307993 -.00015398  00000+0 -37485-3 0  9999
2 61524  53.1628 312.9126 0000423 358.4051   1.6952 15.39693937 26369
STARLINK-32298          
1 61525U 24183S   25087.02843141 -.00013476  00000+0 -32719-3 0  9999
2 61525  53.1609 312.8851 0001948  93.0861 267.0367 15.39647756 26532
STARLINK-32293          
1 61526U 24183T   25087.16668981  .00050705  00000+0  17136-2 0  9991
2 61526  53.1591 312.3523 0001130  85.4727 263.2758 15.30178214 26602
STARLINK-32313          
1 61527U 24183U   25087.16668981  .00031677  00000+0  10781-2 0  9998
2 61527  53.1595 312.2819 0001289  84.1354 299.5401 15.30169476 26552
STARLINK-32319          
1 61528U 24183V   25086.91668981  .00030841  00000+0  10477-2 0  9995
2 61528  53.1593 313.5021 0001193  83.4909 333.0372 15.30243359  5946
STARLINK-32351          
1 61529U 24183W   25087.06656990 -.00127437  00000+0 -32985-2 0  9998
2 61529  53.1612 314.5602 0006125 105.0222 255.1461 15.38951197 26517
STARLINK-32261          
1 61530U 24183X   25087.00618857 -.00000369  00000+0  74297-6 0  9993
2 61530  53.1641 314.8931 0001165  67.1493 292.9635 15.39622539 26569
STARLINK-32358          
1 61531U 24183Y   25086.60708871  .00003165  00000+0  89151-4 0  9994
2 61531  53.1632 316.6664 0000616  83.3381 276.7694 15.39586525 26399
STARLINK-11354 [DTC]    
1 61532U 24184A   25086.54852704  .00001400  00000+0  16420-4 0  9993
2 61532  53.1582 147.6410 0001168  84.9111 275.2040 15.69703371 26804
STARLINK-11323 [DTC]    
1 61533U 24184B   25087.17541024 -.00003541  00000+0 -24365-4 0  9991
2 61533  53.1582 144.4349 0001620  87.2419 272.8784 15.69718728 27026
STARLINK-11338 [DTC]    
1 61534U 24184C   25087.18031518 -.00002254  00000+0 -13748-4 0  9998
2 61534  53.1576 144.4632 0001340 112.0201 248.0960 15.69714388 26905
